{
  "links" : {
    "next" : "https://api.nasa.gov/neo/rest/v1/feed?start_date=2000-04-09&end_date=2000-04-09&detailed=true&api_key=t0TVs3DtDT2H8Oy2Zy8m2eVrNsAVKAexjcZXUckd",
    "prev" : "https://api.nasa.gov/neo/rest/v1/feed?start_date=2000-04-07&end_date=2000-04-07&detailed=true&api_key=t0TVs3DtDT2H8Oy2Zy8m2eVrNsAVKAexjcZXUckd",
    "self" : "https://api.nasa.gov/neo/rest/v1/feed?start_date=2000-04-08&end_date=2000-04-08&detailed=true&api_key=t0TVs3DtDT2H8Oy2Zy8m2eVrNsAVKAexjcZXUckd"
  },
  "element_count" : 8,
  "near_earth_objects" : {
    "2000-04-08" : [ {
      "links" : {
        "self" : "https://api.nasa.gov/neo/rest/v1/neo/3568329?api_key=t0TVs3DtDT2H8Oy2Zy8m2eVrNsAVKAexjcZXUckd"
      },
      "neo_reference_id" : "3568329",
      "name" : "(2011 MW1)",
      "nasa_jpl_url" : "http://ssd.jpl.nasa.gov/sbdb.cgi?sstr=3568329",
      "absolute_magnitude_h" : 22.3,
      "estimated_diameter" : {
        "kilometers" : {
          "estimated_diameter_min" : 0.0921626549,
          "estimated_diameter_max" : 0.2060819612
        },
        "meters" : {
          "estimated_diameter_min" : 92.1626548503,
          "estimated_diameter_max" : 206.0819612321
        },
        "miles" : {
          "estimated_diameter_min" : 0.057267201,
          "estimated_diameter_max" : 0.1280533543
        },
        "feet" : {
          "estimated_diameter_min" : 302.370924539,
          "estimated_diameter_max" : 676.1219416887
        }
      },
      "is_potentially_hazardous_asteroid" : false,
      "close_approach_data" : [ {
        "close_approach_date" : "2000-04-08",
        "epoch_date_close_approach" : 955177200000,
        "relative_velocity" : {
          "kilometers_per_second" : "7.4155548065",
          "kilometers_per_hour" : "26695.9973035542",
          "miles_per_hour" : "16587.8545467556"
        },
        "miss_distance" : {
          "astronomical" : "0.3241922929",
          "lunar" : "126.1108016968",
          "kilometers" : "48498476",
          "miles" : "30135556"
        },
        "orbiting_body" : "Earth"
      } ],
      "orbital_data" : {
        "orbit_id" : "23",
        "orbit_determination_date" : "2017-04-06 08:53:14",
        "orbit_uncertainty" : "1",
        "minimum_orbit_intersection" : ".0252137",
        "jupiter_tisserand_invariant" : "5.794",
        "epoch_osculation" : "2458000.5",
        "eccentricity" : ".2751237856457976",
        "semi_major_axis" : "1.055501786676037",
        "inclination" : "3.261041016446758",
        "ascending_node_longitude" : "277.1279910868792",
        "orbital_period" : "396.0836231738143",
        "perihelion_distance" : ".765108139369823",
        "perihelion_argument" : "124.5015349305658",
        "aphelion_distance" : "1.345895433982252",
        "perihelion_time" : "2457818.298102542335",
        "mean_anomaly" : "165.6031182485302",
        "mean_motion" : ".9088989772294128",
        "equinox" : "J2000"
      }
    }, {
      "links" : {
        "self" : "https://api.nasa.gov/neo/rest/v1/neo/3728933?api_key=t0TVs3DtDT2H8Oy2Zy8m2eVrNsAVKAexjcZXUckd"
      },
      "neo_reference_id" : "3728933",
      "name" : "(2015 TK1)",
      "nasa_jpl_url" : "http://ssd.jpl.nasa.gov/sbdb.cgi?sstr=3728933",
      "absolute_magnitude_h" : 22.2,
      "estimated_diameter" : {
        "kilometers" : {
          "estimated_diameter_min" : 0.096506147,
          "estimated_diameter_max" : 0.2157943048
        },
        "meters" : {
          "estimated_diameter_min" : 96.5061469579,
          "estimated_diameter_max" : 215.7943048444
        },
        "miles" : {
          "estimated_diameter_min" : 0.059966121,
          "estimated_diameter_max" : 0.134088323
        },
        "feet" : {
          "estimated_diameter_min" : 316.6212271853,
          "estimated_diameter_max" : 707.9865871058
        }
      },
      "is_potentially_hazardous_asteroid" : false,
      "close_approach_data" : [ {
        "close_approach_date" : "2000-04-08",
        "epoch_date_close_approach" : 955177200000,
        "relative_velocity" : {
          "kilometers_per_second" : "17.3095273636",
          "kilometers_per_hour" : "62314.298508924",
          "miles_per_hour" : "38719.6817596145"
        },
        "miss_distance" : {
          "astronomical" : "0.0549885648",
          "lunar" : "21.3905506134",
          "kilometers" : "8226172",
          "miles" : "5111506.5"
        },
        "orbiting_body" : "Earth"
      } ],
      "orbital_data" : {
        "orbit_id" : "15",
        "orbit_determination_date" : "2017-04-06 08:31:36",
        "orbit_uncertainty" : "6",
        "minimum_orbit_intersection" : ".0445389",
        "jupiter_tisserand_invariant" : "4.646",
        "epoch_osculation" : "2458000.5",
        "eccentricity" : ".4387852735732283",
        "semi_major_axis" : "1.362064256587879",
        "inclination" : "26.02365230649243",
        "ascending_node_longitude" : "23.88673516596442",
        "orbital_period" : "580.623783337292",
        "perihelion_distance" : ".7644105191366505",
        "perihelion_argument" : "94.55029447652403",
        "aphelion_distance" : "1.959717994039107",
        "perihelion_time" : "2457970.874959538583",
        "mean_anomaly" : "18.3682013589078",
        "mean_motion" : ".6200228277436428",
        "equinox" : "J2000"
      }
    } ]
  }
}